[{"OBJECT_NAME":"PROTOMETHEE","OBJECT_ID":"2023-174BT","EPOCH":"2026-03-09T23:28:08.029344","MEAN_MOTION":15.30202663,"ECCENTRICITY":0.00088339,"INCLINATION":97.3826,"RA_OF_ASC_NODE":147.9552,"ARG_OF_PERICENTER":148.5993,"MEAN_ANOMALY":211.5776,"EPHEMERIS_TYPE":0,"CLASSIFICATION_TYPE":"U","NORAD_CAT_ID":58321,"ELEMENT_SET_NO":999,"REV_AT_EPOCH":12979,"BSTAR":0.00015715731,"MEAN_MOTION_DOT":4.52e-5,"MEAN_MOTION_DDOT":0},{"OBJECT_NAME":"STARLINK-33822","OBJECT_ID":"2025-083AA","EPOCH":"2026-03-09T05:21:10.376064","MEAN_MOTION":15.27587513,"ECCENTRICITY":0.00020161,"INCLINATION":43.0043,"RA_OF_ASC_NODE":7.9983,"ARG_OF_PERICENTER":254.4439,"MEAN_ANOMALY":105.619,"EPHEMERIS_TYPE":0,"CLASSIFICATION_TYPE":"U","NORAD_CAT_ID":63658,"ELEMENT_SET_NO":999,"REV_AT_EPOCH":5002,"BSTAR":0.0013542806,"MEAN_MOTION_DOT":0.00037202,"MEAN_MOTION_DDOT":0}]
